[{"OBJECT_NAME":"SITRO-AIS 6 (CHIRKIN)","OBJECT_ID":"2023-091AC","EPOCH":"2026-03-09T23:26:09.745152","MEAN_MOTION":15.244139,"ECCENTRICITY":0.00142211,"INCLINATION":97.5181,"RA_OF_ASC_NODE":131.6463,"ARG_OF_PERICENTER":95.0602,"MEAN_ANOMALY":265.2259,"EPHEMERIS_TYPE":0,"CLASSIFICATION_TYPE":"U","NORAD_CAT_ID":57192,"ELEMENT_SET_NO":999,"REV_AT_EPOCH":14916,"BSTAR":0.00035317072,"MEAN_MOTION_DOT":8.613e-5,"MEAN_MOTION_DDOT":0},{"OBJECT_NAME":"STARLINK-30965","OBJECT_ID":"2023-186E","EPOCH":"2026-03-09T23:29:48.347520","MEAN_MOTION":15.26740788,"ECCENTRICITY":0.00011996,"INCLINATION":42.9998,"RA_OF_ASC_NODE":50.4378,"ARG_OF_PERICENTER":233.4959,"MEAN_ANOMALY":126.5782,"EPHEMERIS_TYPE":0,"CLASSIFICATION_TYPE":"U","NORAD_CAT_ID":58477,"ELEMENT_SET_NO":999,"REV_AT_EPOCH":12607,"BSTAR":7.9767855e-5,"MEAN_MOTION_DOT":1.881e-5,"MEAN_MOTION_DDOT":0}]
